NORAD_CAT_ID,OBJECT_NAME,OBJECT_TYPE,EPOCH,MEAN_MOTION,ECCENTRICITY,INCLINATION,RA_OF_ASC_NODE,ARG_OF_PERICENTER,MEAN_ANOMALY,BSTAR,MEAN_MOTION_DOT,MEAN_MOTION_DDOT,TLE_LINE0,TLE_LINE1,TLE_LINE2,SEMIMAJOR_AXIS,PERIOD,APOGEE,PERIGEE,DECAYED
52534.0,STARLINK-3952,PAYLOAD,2024-07-11 14:48:38,15.08837113,0.0001335,53.2191,329.8867,88.8759,271.2386,1.4289e-05,-6e-07,0.0,0 STARLINK-3952,1 52534U 22051B   24193.61711505 -.00000060  00000-0  14289-4 0  9999,2 52534  53.2191 329.8867 0001335  88.8759 271.2386 15.08837113120685,6917.889,95.438,540.678,538.831,0.0
52534.0,STARLINK-3952,PAYLOAD,2024-07-12 01:56:20,15.08840414,0.0001348,53.2194,327.8051,87.4453,272.6694,2.1126e-06,-2.54e-06,0.0,0 STARLINK-3952,1 52534U 22051B   24194.08079405 -.00000254  00000-0  21126-5 0  9991,2 52534  53.2194 327.8051 0001348  87.4453 272.6694 15.08840414120080,6917.879,95.438,540.677,538.812,0.0
52534.0,STARLINK-3952,PAYLOAD,2024-07-12 13:04:03,15.08833159,0.0001351,53.2195,325.7288,95.863,264.2516,4.3039e-05,3.97e-06,0.0,0 STARLINK-3952,1 52534U 22051B   24194.54448070  .00000397  00000-0  43039-4 0  9993,2 52534  53.2195 325.7288 0001351  95.8630 264.2516 15.08833159120150,6917.901,95.438,540.701,538.832,0.0
52534.0,STARLINK-3952,PAYLOAD,2024-07-12 14:39:26,15.08834044,0.0001713,53.2178,325.4298,92.6917,267.4271,7.0337e-05,8.31e-06,0.0,0 STARLINK-3952,1 52534U 22051B   24194.61071994  .00000831  00000-0  70337-4 0  9992,2 52534  53.2178 325.4298 0001713  92.6917 267.4271 15.08834044120836,6917.899,95.438,540.949,538.579,0.0
52534.0,STARLINK-3952,PAYLOAD,2024-07-13 01:47:07,15.08839757,0.0001743,53.2189,323.3483,91.5509,268.5683,9.6764e-05,1.252e-05,0.0,0 STARLINK-3952,1 52534U 22051B   24195.07439697  .00001252  00000-0  96764-4 0  9991,2 52534  53.2189 323.3483 0001743  91.5509 268.5683 15.08839757120238,6917.881,95.438,540.952,538.54,0.0
52534.0,STARLINK-3952,PAYLOAD,2024-07-13 14:30:12,15.08847552,0.0001167,53.2164,320.9701,92.5833,267.5293,9.069e-05,1.156e-05,0.0,0 STARLINK-3952,1 52534U 22051B   24195.60431240  .00001156  00000-0  90690-4 0  9991,2 52534  53.2164 320.9701 0001167  92.5833 267.5293 15.08847552120988,6917.857,95.437,540.53,538.915,0.0
52534.0,STARLINK-3952,PAYLOAD,2024-07-13 16:05:35,15.08850972,0.0001269,53.2185,320.6724,87.6114,272.5023,0.00018499,2.658e-05,0.0,0 STARLINK-3952,1 52534U 22051B   24195.67054777  .00002658  00000-0  18499-3 0  9998,2 52534  53.2185 320.6724 0001269  87.6114 272.5023 15.08850972120328,6917.847,95.437,540.59,538.834,0.0
52534.0,STARLINK-3952,PAYLOAD,2024-07-14 01:37:54,15.08846659,0.0001317,53.2188,318.8876,88.172,271.9423,0.00014599,2.037e-05,0.0,0 STARLINK-3952,1 52534U 22051B   24196.06799109  .00002037  00000-0  14599-3 0  9995,2 52534  53.2188 318.8876 0001317  88.1720 271.9423 15.08846659120381,6917.86,95.437,540.636,538.814,0.0
52534.0,STARLINK-3952,PAYLOAD,2024-07-14 14:20:59,15.08844419,0.0001191,53.2157,316.509,95.1832,264.9296,0.00017199,2.451e-05,0.0,0 STARLINK-3952,1 52534U 22051B   24196.59791218  .00002451  00000-0  17199-3 0  9995,2 52534  53.2157 316.5090 0001191  95.1832 264.9296 15.08844419121138,6917.867,95.437,540.556,538.908,0.0
52534.0,STARLINK-3952,PAYLOAD,2024-07-15 12:36:23,15.08843978,0.0001643,53.2156,312.3459,87.4134,272.7046,8.1242e-05,1.005e-05,0.0,0 STARLINK-3952,1 52534U 22051B   24197.52527234  .00001005  00000-0  81242-4 0  9999,2 52534  53.2156 312.3459 0001643  87.4134 272.7046 15.08843978120601,6917.868,95.437,540.87,538.597,0.0
52534.0,STARLINK-3952,PAYLOAD,2024-07-15 14:11:46,15.08846159,0.000153,53.2153,312.0481,91.271,268.8457,0.00011688,1.573e-05,0.0,0 STARLINK-3952,1 52534U 22051B   24197.59151064  .00001573  00000-0  11688-3 0  9996,2 52534  53.2153 312.0481 0001530  91.2710 268.8457 15.08846159121289,6917.862,95.437,540.785,538.668,0.0
52534.0,STARLINK-3952,PAYLOAD,2024-07-16 14:02:33,15.08846066,0.0001439,53.2163,307.5873,95.1311,264.9845,7.5069e-05,9.07e-06,0.0,0 STARLINK-3952,1 52534U 22051B   24198.58510974  .00000907  00000-0  75069-4 0  9999,2 52534  53.2163 307.5873 0001439  95.1311 264.9845 15.08846066121434,6917.862,95.437,540.722,538.731,0.0
52534.0,STARLINK-3952,PAYLOAD,2024-07-17 13:53:20,15.08839002,0.0001377,53.2181,303.1315,76.182,283.9326,0.0001515,2.124e-05,0.0,0 STARLINK-3952,1 52534U 22051B   24199.57871488  .00002124  00000-0  15150-3 0  9996,2 52534  53.2181 303.1315 0001377  76.1820 283.9326 15.08839002120911,6917.883,95.438,540.701,538.796,0.0
52534.0,STARLINK-3952,PAYLOAD,2024-07-18 13:44:08,15.08843299,0.0001481,53.2187,298.6728,102.6867,257.4291,0.00011344,1.518e-05,0.0,0 STARLINK-3952,1 52534U 22051B   24200.57231567  .00001518  00000-0  11344-3 0  9994,2 52534  53.2187 298.6728 0001481 102.6867 257.4291 15.08843299121736,6917.87,95.437,540.76,538.711,0.0
52534.0,STARLINK-3952,PAYLOAD,2024-07-19 13:34:55,15.08838944,0.0001153,53.2177,294.2101,90.5729,269.5395,6.0647e-05,6.77e-06,0.0,0 STARLINK-3952,1 52534U 22051B   24201.56592233  .00000677  00000-0  60647-4 0  9990,2 52534  53.2177 294.2101 0001153  90.5729 269.5395 15.08838944121213,6917.884,95.438,540.546,538.951,0.0
52534.0,STARLINK-3952,PAYLOAD,2024-07-19 23:07:13,15.08845539,0.0001302,53.2181,292.4238,74.8911,285.2225,0.00015428,2.169e-05,0.0,0 STARLINK-3952,1 52534U 22051B   24201.96335593  .00002169  00000-0  15428-3 0  9992,2 52534  53.2181 292.4238 0001302  74.8911 285.2225 15.08845539121274,6917.863,95.437,540.629,538.828,0.0
52534.0,STARLINK-3952,PAYLOAD,2024-07-20 13:25:41,15.08855386,0.0001304,53.2174,289.7504,89.4412,270.673,0.00015235,2.139e-05,0.0,0 STARLINK-3952,1 52534U 22051B   24202.55951066  .00002139  00000-0  15235-3 0  9990,2 52534  53.2174 289.7504 0001304  89.4412 270.6730 15.08855386122036,6917.833,95.437,540.6,538.796,0.0
52534.0,STARLINK-3952,PAYLOAD,2024-07-20 22:58:01,15.08843722,0.000113,53.2171,287.9603,75.6324,284.4793,-2.2787e-05,-6.5e-06,0.0,0 STARLINK-3952,1 52534U 22051B   24202.95695931 -.00000650  00000-0 -22787-4 0  9999,2 52534  53.2171 287.9603 0001130  75.6324 284.4793 15.08843722121424,6917.869,95.437,540.516,538.952,0.0
52534.0,STARLINK-3952,PAYLOAD,2024-07-21 13:16:30,15.08831906,0.0001256,53.2167,285.2837,83.6608,276.4527,-3.4301e-05,-8.34e-06,0.0,0 STARLINK-3952,1 52534U 22051B   24203.55313294 -.00000834  00000-0 -34301-4 0  9994,2 52534  53.2167 285.2837 0001256  83.6608 276.4527 15.08831906121519,6917.905,95.438,540.639,538.901,0.0
52534.0,STARLINK-3952,PAYLOAD,2024-07-22 05:10:21,15.0883666,0.0001281,53.2168,282.3076,80.56,279.5537,6.8353e-05,8e-06,0.0,0 STARLINK-3952,1 52534U 22051B   24204.21552812  .00000800  00000-0  68353-4 0  9994,2 52534  53.2168 282.3076 0001281  80.5600 279.5537 15.08836660121617,6917.891,95.438,540.642,538.869,0.0
52534.0,STARLINK-3952,PAYLOAD,2024-07-22 09:56:30,15.08844037,0.0001308,53.2164,281.4213,80.1376,279.9764,0.00012106,1.639e-05,0.0,0 STARLINK-3952,1 52534U 22051B   24204.41424247  .00001639  00000-0  12106-3 0  9991,2 52534  53.2164 281.4213 0001308  80.1376 279.9764 15.08844037121648,6917.868,95.437,540.638,538.828,0.0
52534.0,STARLINK-3952,PAYLOAD,2024-07-22 14:42:39,15.08859547,0.0001383,53.2165,280.524,100.0954,260.0194,8.5885e-05,1.08e-05,0.0,0 STARLINK-3952,1 52534U 22051B   24204.61295205  .00001080  00000-0  85885-4 0  9998,2 52534  53.2165 280.5240 0001383 100.0954 260.0194 15.08859547122344,6917.821,95.436,540.642,538.729,0.0
52534.0,STARLINK-3952,PAYLOAD,2024-07-23 05:01:08,15.08837994,0.0001781,53.2164,277.8469,105.0388,255.0801,0.00022519,3.297e-05,0.0,0 STARLINK-3952,1 52534U 22051B   24205.20912198  .00003297  00000-0  22519-3 0  9997,2 52534  53.2164 277.8469 0001781 105.0388 255.0801 15.08837994121769,6917.887,95.438,540.984,538.519,0.0
52534.0,STARLINK-3952,PAYLOAD,2024-07-23 11:22:40,15.08840757,0.0001601,53.2171,276.6614,84.1951,275.9224,0.00021239,3.094e-05,0.0,0 STARLINK-3952,1 52534U 22051B   24205.47408467  .00003094  00000-0  21239-3 0  9998,2 52534  53.2171 276.6614 0001601  84.1951 275.9224 15.08840757122470,6917.878,95.438,540.851,538.636,0.0
52534.0,STARLINK-3952,PAYLOAD,2024-07-24 04:51:55,15.08841327,0.0001167,53.2165,273.3884,85.8901,274.2224,-5.9915e-05,-1.241e-05,0.0,0 STARLINK-3952,1 52534U 22051B   24206.20273038 -.00001241  00000-0 -59915-4 0  9991,2 52534  53.2165 273.3884 0001167  85.8901 274.2224 15.08841327121910,6917.876,95.437,540.549,538.934,0.0
52534.0,STARLINK-3952,PAYLOAD,2024-07-24 14:24:14,15.08839182,0.0001286,53.2151,271.6029,91.7991,268.3148,-7.6565e-05,-1.506e-05,0.0,0 STARLINK-3952,1 52534U 22051B   24206.60017138 -.00001506  00000-0 -76565-4 0  9996,2 52534  53.2151 271.6029 0001286  91.7991 268.3148 15.08839182122640,6917.883,95.438,540.638,538.858,0.0
52534.0,STARLINK-3952,PAYLOAD,2024-07-25 09:28:51,15.08848215,0.0001369,53.2167,268.0372,81.2666,278.8481,7.5723e-05,9.18e-06,0.0,0 STARLINK-3952,1 52534U 22051B   24207.39504156  .00000918  00000-0  75723-4 0  9993,2 52534  53.2167 268.0372 0001369  81.2666 278.8481 15.08848215122095,6917.855,95.437,540.667,538.773,0.0
52534.0,STARLINK-3952,PAYLOAD,2024-07-26 04:33:29,15.08833322,0.0001507,53.2169,264.4713,88.2997,271.8168,0.00012464,1.696e-05,0.0,0 STARLINK-3952,1 52534U 22051B   24208.18992878  .00001696  00000-0  12464-3 0  9999,2 52534  53.2169 264.4713 0001507  88.2997 271.8168 15.08833322122216,6917.901,95.438,540.808,538.723,0.0
52534.0,STARLINK-3952,PAYLOAD,2024-07-26 14:05:48,15.08840208,0.0001545,53.2166,262.684,101.001,259.1156,0.00012358,1.679e-05,0.0,0 STARLINK-3952,1 52534U 22051B   24208.58736447  .00001679  00000-0  12358-3 0  9994,2 52534  53.2166 262.6840 0001545 101.0010 259.1156 15.08840208122943,6917.88,95.438,540.814,538.676,0.0
52534.0,STARLINK-3952,PAYLOAD,2024-07-26 20:27:20,15.08842506,0.0001252,53.2149,261.494,76.268,283.8451,8.5033e-05,1.066e-05,0.0,0 STARLINK-3952,1 52534U 22051B   24208.85232432  .00001066  00000-0  85033-4 0  9990,2 52534  53.2149 261.4940 0001252  76.2680 283.8451 15.08842506122319,6917.873,95.437,540.604,538.872,0.0
